{"type": "FeatureCollection", "features": [ {"type": "Feature", "properties": {"norad_id": 66574, "name": "STARLINK-35812", "group": "last-30-days", "lat": 42.769215737340325, "lon": 125.46724975581597, "alt_km": 445.25587904349777, "timestamp": "2025-12-26T04:40:04.509080+00:00", "meta": {"OBJECT_NAME": "STARLINK-35812", "OBJECT_ID": "2025-268T", "EPOCH": "2025-12-25T22:00:01.999584", "MEAN_MOTION": 15.39587668, "ECCENTRICITY": 0.00014156, "INCLINATION": 43.0014, "RA_OF_ASC_NODE": 44.0349, "ARG_OF_PERICENTER": 262.0328, "MEAN_ANOMALY": 81.9208, "EPHEMERIS_TYPE": 0, "CLASSIFICATION_TYPE": "U", "NORAD_CAT_ID": 66574, "ELEMENT_SET_NO": 999, "REV_AT_EPOCH": 601, "BSTAR": -0.057539942, "MEAN_MOTION_DOT": -0.02055425, "MEAN_MOTION_DDOT": 0}, "tle": {"line1": "1 66574U 25268T   25359.91668981 -.02055425  00000+0 -57540-1 0  9999", "line2": "2 66574  43.0014  44.0349 0001415 262.0328  81.9208 15.39587668  6013"}}, "geometry": {"type": "Point", "coordinates": [125.46724975581597, 42.769215737340325]}}, {"type": "Feature", "properties": {"norad_id": 66575, "name": "STARLINK-35810", "group": "last-30-days", "lat": 42.37460460486453, "lon": 144.1623410733908, "alt_km": 442.8826429573619, "timestamp": "2025-12-26T04:40:04.509090+00:00", "meta": {"OBJECT_NAME": "STARLINK-35810", "OBJECT_ID": "2025-268U", "EPOCH": "2025-12-25T22:00:01.999584", "MEAN_MOTION": 15.40425019, "ECCENTRICITY": 0.00015193, "INCLINATION": 43.0003, "RA_OF_ASC_NODE": 44.0039, "ARG_OF_PERICENTER": 263.6156, "MEAN_ANOMALY": 93.2539, "EPHEMERIS_TYPE": 0, "CLASSIFICATION_TYPE": "U", "NORAD_CAT_ID": 66575, "ELEMENT_SET_NO": 999, "REV_AT_EPOCH": 601, "BSTAR": -0.056095131, "MEAN_MOTION_DOT": -0.02060063, "MEAN_MOTION_DDOT": 0}, "tle": {"line1": "1 66575U 25268U   25359.91668981 -.02060063  00000+0 -56095-1 0  9998", "line2": "2 66575  43.0003  44.0039 0001519 263.6156  93.2539 15.40425019  6015"}}, "geometry": {"type": "Point", "coordinates": [144.1623410733908, 42.37460460486453]}}, {"type": "Feature", "properties": {"norad_id": 66576, "name": "STARLINK-35814", "group": "last-30-days", "lat": 39.25042417859395, "lon": 161.11953763095767, "alt_km": 440.8162773817903, "timestamp": "2025-12-26T04:40:04.509101+00:00", "meta": {"OBJECT_NAME": "STARLINK-35814", "OBJECT_ID": "2025-268V", "EPOCH": "2025-12-25T22:00:01.999584", "MEAN_MOTION": 15.41261804, "ECCENTRICITY": 0.00015191, "INCLINATION": 43.0015, "RA_OF_ASC_NODE": 43.9734, "ARG_OF_PERICENTER": 266.7555, "MEAN_ANOMALY": 102.467, "EPHEMERIS_TYPE": 0, "CLASSIFICATION_TYPE": "U", "NORAD_CAT_ID": 66576, "ELEMENT_SET_NO": 999, "REV_AT_EPOCH": 607, "BSTAR": -0.054434858, "MEAN_MOTION_DOT": -0.02056471, "MEAN_MOTION_DDOT": 0}, "tle": {"line1": "1 66576U 25268V   25359.91668981 -.02056471  00000+0 -54435-1 0  9993", "line2": "2 66576  43.0015  43.9734 0001519 266.7555 102.4670 15.41261804  6072"}}, "geometry": {"type": "Point", "coordinates": [161.11953763095767, 39.25042417859395]}}, {"type": "Feature", "properties": {"norad_id": 66577, "name": "STARLINK-35815", "group": "last-30-days", "lat": 30.432232594839434, "lon": -176.75644241115455, "alt_km": 437.8173366119063, "timestamp": "2025-12-26T04:40:04.509111+00:00", "meta": {"OBJECT_NAME": "STARLINK-35815", "OBJECT_ID": "2025-268W", "EPOCH": "2025-12-25T22:00:01.999584", "MEAN_MOTION": 15.42719091, "ECCENTRICITY": 0.00016386, "INCLINATION": 43.0006, "RA_OF_ASC_NODE": 43.9278, "ARG_OF_PERICENTER": 269.4613, "MEAN_ANOMALY": 118.4336, "EPHEMERIS_TYPE": 0, "CLASSIFICATION_TYPE": "U", "NORAD_CAT_ID": 66577, "ELEMENT_SET_NO": 999, "REV_AT_EPOCH": 596, "BSTAR": -0.052176633, "MEAN_MOTION_DOT": -0.020692, "MEAN_MOTION_DDOT": 0}, "tle": {"line1": "1 66577U 25268W   25359.91668981 -.02069200  00000+0 -52177-1 0  9999", "line2": "2 66577  43.0006  43.9278 0001638 269.4613 118.4336 15.42719091  5963"}}, "geometry": {"type": "Point", "coordinates": [-176.75644241115455, 30.432232594839434]}}, {"type": "Feature", "properties": {"norad_id": 66578, "name": "STARLINK-35743", "group": "last-30-days", "lat": 23.812056336994523, "lon": -165.9698580347188, "alt_km": 436.1208566603427, "timestamp": "2025-12-26T04:40:04.509122+00:00", "meta": {"OBJECT_NAME": "STARLINK-35743", "OBJECT_ID": "2025-268X", "EPOCH": "2025-12-25T22:00:01.999584", "MEAN_MOTION": 15.43518392, "ECCENTRICITY": 0.00014957, "INCLINATION": 43.0009, "RA_OF_ASC_NODE": 43.9025, "ARG_OF_PERICENTER": 270.8145, "MEAN_ANOMALY": 127.9069, "EPHEMERIS_TYPE": 0, "CLASSIFICATION_TYPE": "U", "NORAD_CAT_ID": 66578, "ELEMENT_SET_NO": 999, "REV_AT_EPOCH": 608, "BSTAR": -0.048159806, "MEAN_MOTION_DOT": -0.01973971, "MEAN_MOTION_DDOT": 0}, "tle": {"line1": "1 66578U 25268X   25359.91668981 -.01973971  00000+0 -48160-1 0  9995", "line2": "2 66578  43.0009  43.9025 0001495 270.8145 127.9069 15.43518392  6088"}}, "geometry": {"type": "Point", "coordinates": [-165.9698580347188, 23.812056336994523]}}, {"type": "Feature", "properties": {"norad_id": 66579, "name": "STARLINK-35868", "group": "last-30-days", "lat": 16.877841206634763, "lon": -156.73271229367438, "alt_km": 434.6304506159713, "timestamp": "2025-12-26T04:40:04.509135+00:00", "meta": {"OBJECT_NAME": "STARLINK-35868", "OBJECT_ID": "2025-268Y", "EPOCH": "2025-12-25T22:00:01.999584", "MEAN_MOTION": 15.44384744, "ECCENTRICITY": 0.00014491, "INCLINATION": 43.001, "RA_OF_ASC_NODE": 43.8765, "ARG_OF_PERICENTER": 271.5116, "MEAN_ANOMALY": 137.467, "EPHEMERIS_TYPE": 0, "CLASSIFICATION_TYPE": "U", "NORAD_CAT_ID": 66579, "ELEMENT_SET_NO": 999, "REV_AT_EPOCH": 608, "BSTAR": -0.048736284, "MEAN_MOTION_DOT": -0.02048481, "MEAN_MOTION_DDOT": 0}, "tle": {"line1": "1 66579U 25268Y   25359.91668981 -.02048481  00000+0 -48736-1 0  9995", "line2": "2 66579  43.0010  43.8765 0001449 271.5116 137.4670 15.44384744  6083"}}, "geometry": {"type": "Point", "coordinates": [-156.73271229367438, 16.877841206634763]}}, {"type": "Feature", "properties": {"norad_id": 66580, "name": "STARLINK-35872", "group": "last-30-days", "lat": 9.936182099019678, "lon": -148.59335743691855, "alt_km": 433.06983209056307, "timestamp": "2025-12-26T04:40:04.509146+00:00", "meta": {"OBJECT_NAME": "STARLINK-35872", "OBJECT_ID": "2025-268Z", "EPOCH": "2025-12-25T22:00:01.999584", "MEAN_MOTION": 15.45222473, "ECCENTRICITY": 0.00015025, "INCLINATION": 43.0011, "RA_OF_ASC_NODE": 43.8524, "ARG_OF_PERICENTER": 272.6732, "MEAN_ANOMALY": 146.0047, "EPHEMERIS_TYPE": 0, "CLASSIFICATION_TYPE": "U", "NORAD_CAT_ID": 66580, "ELEMENT_SET_NO": 999, "REV_AT_EPOCH": 596, "BSTAR": -0.047341907, "MEAN_MOTION_DOT": -0.02048256, "MEAN_MOTION_DDOT": 0}, "tle": {"line1": "1 66580U 25268Z   25359.91668981 -.02048256  00000+0 -47342-1 0  9999", "line2": "2 66580  43.0011  43.8524 0001502 272.6732 146.0047 15.45222473  5966"}}, "geometry": {"type": "Point", "coordinates": [-148.59335743691855, 9.936182099019678]}}, {"type": "Feature", "properties": {"norad_id": 66581, "name": "STARLINK-35744", "group": "last-30-days", "lat": 3.189779726852816, "lon": -141.21297717977157, "alt_km": 431.4717815005042, "timestamp": "2025-12-26T04:40:04.509157+00:00", "meta": {"OBJECT_NAME": "STARLINK-35744", "OBJECT_ID": "2025-268AA", "EPOCH": "2025-12-25T22:00:01.999584", "MEAN_MOTION": 15.4605574, "ECCENTRICITY": 0.00017336, "INCLINATION": 43.0008, "RA_OF_ASC_NODE": 43.8283, "ARG_OF_PERICENTER": 276.5328, "MEAN_ANOMALY": 151.2824, "EPHEMERIS_TYPE": 0, "CLASSIFICATION_TYPE": "U", "NORAD_CAT_ID": 66581, "ELEMENT_SET_NO": 999, "REV_AT_EPOCH": 591, "BSTAR": -0.045566336, "MEAN_MOTION_DOT": -0.02031465, "MEAN_MOTION_DDOT": 0}, "tle": {"line1": "1 66581U 25268AA  25359.91668981 -.02031465  00000+0 -45566-1 0  9990", "line2": "2 66581  43.0008  43.8283 0001733 276.5328 151.2824 15.46055740  5913"}}, "geometry": {"type": "Point", "coordinates": [-141.21297717977157, 3.189779726852816]}}, {"type": "Feature", "properties": {"norad_id": 66582, "name": "STARLINK-35746", "group": "last-30-days", "lat": -6.713372164843115, "lon": -130.56323545897902, "alt_km": 428.1963824426275, "timestamp": "2025-12-26T04:40:04.509167+00:00", "meta": {"OBJECT_NAME": "STARLINK-35746", "OBJECT_ID": "2025-268AB", "EPOCH": "2025-12-25T22:00:01.999584", "MEAN_MOTION": 15.47509045, "ECCENTRICITY": 0.00013552, "INCLINATION": 43.0011, "RA_OF_ASC_NODE": 43.7964, "ARG_OF_PERICENTER": 276.5229, "MEAN_ANOMALY": 164.3958, "EPHEMERIS_TYPE": 0, "CLASSIFICATION_TYPE": "U", "NORAD_CAT_ID": 66582, "ELEMENT_SET_NO": 999, "REV_AT_EPOCH": 608, "BSTAR": -0.044062274, "MEAN_MOTION_DOT": -0.02062676, "MEAN_MOTION_DDOT": 0}, "tle": {"line1": "1 66582U 25268AB  25359.91668981 -.02062676  00000+0 -44062-1 0  9999", "line2": "2 66582  43.0011  43.7964 0001355 276.5229 164.3958 15.47509045  6088"}}, "geometry": {"type": "Point", "coordinates": [-130.56323545897902, -6.713372164843115]}}, {"type": "Feature", "properties": {"norad_id": 66583, "name": "STARLINK-35941", "group": "last-30-days", "lat": -12.370802816825224, "lon": -124.22624282015308, "alt_km": 426.1986127308601, "timestamp": "2025-12-26T04:40:04.509178+00:00", "meta": {"OBJECT_NAME": "STARLINK-35941", "OBJECT_ID": "2025-268AC", "EPOCH": "2025-12-25T22:00:01.999584", "MEAN_MOTION": 15.48340096, "ECCENTRICITY": 0.0001448, "INCLINATION": 42.9998, "RA_OF_ASC_NODE": 43.7785, "ARG_OF_PERICENTER": 276.7785, "MEAN_ANOMALY": 171.7481, "EPHEMERIS_TYPE": 0, "CLASSIFICATION_TYPE": "U", "NORAD_CAT_ID": 66583, "ELEMENT_SET_NO": 999, "REV_AT_EPOCH": 608, "BSTAR": -0.042541565, "MEAN_MOTION_DOT": -0.02052081, "MEAN_MOTION_DDOT": 0}, "tle": {"line1": "1 66583U 25268AC  25359.91668981 -.02052081  00000+0 -42542-1 0  9990", "line2": "2 66583  42.9998  43.7785 0001448 276.7785 171.7481 15.48340096  6087"}}, "geometry": {"type": "Point", "coordinates": [-124.22624282015308, -12.370802816825224]}}]}